[{"OBJECT_NAME":"ORBCOMM FM04","OBJECT_ID":"1998-007C","EPOCH":"2026-03-09T14:44:15.821664","MEAN_MOTION":14.35529153,"ECCENTRICITY":0.0038795,"INCLINATION":107.9614,"RA_OF_ASC_NODE":324.5497,"ARG_OF_PERICENTER":142.9338,"MEAN_ANOMALY":217.4493,"EPHEMERIS_TYPE":0,"CLASSIFICATION_TYPE":"U","NORAD_CAT_ID":25159,"ELEMENT_SET_NO":999,"REV_AT_EPOCH":46230,"BSTAR":0.0004125,"MEAN_MOTION_DOT":1.067e-5,"MEAN_MOTION_DDOT":0},{"OBJECT_NAME":"SL-16 DEB","OBJECT_ID":"1992-093BU","EPOCH":"2026-03-09T16:02:32.634528","MEAN_MOTION":14.11238091,"ECCENTRICITY":0.0086151,"INCLINATION":70.7036,"RA_OF_ASC_NODE":177.4384,"ARG_OF_PERICENTER":284.0463,"MEAN_ANOMALY":75.109,"EPHEMERIS_TYPE":0,"CLASSIFICATION_TYPE":"U","NORAD_CAT_ID":22379,"ELEMENT_SET_NO":999,"REV_AT_EPOCH":69617,"BSTAR":0.00066206269,"MEAN_MOTION_DOT":1.188e-5,"MEAN_MOTION_DDOT":0}]
